IRIDIUM 119             
1 42959U 17061E   24263.60526484  .00000512  00000+0  17567-3 0  9992
2 42959  86.3922 290.8481 0001901  93.4334 266.7080 14.34217127363711
IRIDIUM 107             
1 42960U 17061F   24263.62429212  .00000520  00000+0  17849-3 0  9999
2 42960  86.3923 290.8576 0001988  97.6548 262.4873 14.34218616363725
IRIDIUM 132             
1 42961U 17061G   24263.56086301  .00000510  00000+0  17490-3 0  9992
2 42961  86.3924 290.8683 0002047 101.0426 259.1000 14.34217900363717
IRIDIUM 136             
1 42962U 17061H   24262.54603247  .00000667  00000+0  23093-3 0  9993
2 42962  86.3924 291.2965 0002091  89.8486 270.2949 14.34225421363582
IRIDIUM 139             
1 42963U 17061J   24263.59892182  .00000572  00000+0  19722-3 0  9997
2 42963  86.3924 290.9075 0002026 100.7986 259.3437 14.34217769363741
IRIDIUM 125             
1 42964U 17061K   24263.58623442  .00000382  00000+0  12926-3 0  9996
2 42964  86.3926 290.9623 0001614  90.4239 269.7142 14.34218626363753
IRIDIUM 135             
1 43070U 17083A   24263.63012554  .00000901  00000+0  31470-3 0  9993
2 43070  86.3970 227.5782 0002700  87.8043 272.3461 14.34218667353054
IRIDIUM 138             
1 43071U 17083B   24263.65549928  .00000816  00000+0  28413-3 0  9994
2 43071  86.3958 227.2736 0002120  74.4500 285.6930 14.34218370353041
